[{"OBJECT_NAME":"STARLINK-36213","OBJECT_ID":"2025-304W","EPOCH":"2026-03-09T17:36:08.078112","MEAN_MOTION":14.98333555,"ECCENTRICITY":0.00026387,"INCLINATION":70.0025,"RA_OF_ASC_NODE":174.2497,"ARG_OF_PERICENTER":272.6683,"MEAN_ANOMALY":87.4174,"EPHEMERIS_TYPE":0,"CLASSIFICATION_TYPE":"U","NORAD_CAT_ID":67212,"ELEMENT_SET_NO":999,"REV_AT_EPOCH":1389,"BSTAR":0.00042942824,"MEAN_MOTION_DOT":5.035e-5,"MEAN_MOTION_DDOT":0},{"OBJECT_NAME":"CINEMA-2 (KHUSAT-2)","OBJECT_ID":"2013-066J","EPOCH":"2026-03-09T17:51:52.526880","MEAN_MOTION":14.83992002,"ECCENTRICITY":0.00772725,"INCLINATION":97.8811,"RA_OF_ASC_NODE":0.8363,"ARG_OF_PERICENTER":94.4582,"MEAN_ANOMALY":266.5465,"EPHEMERIS_TYPE":0,"CLASSIFICATION_TYPE":"U","NORAD_CAT_ID":39424,"ELEMENT_SET_NO":999,"REV_AT_EPOCH":66134,"BSTAR":0.00039855246,"MEAN_MOTION_DOT":3.441e-5,"MEAN_MOTION_DDOT":0}]
